[{"OBJECT_NAME":"STARLINK-5801","OBJECT_ID":"2023-042V","EPOCH":"2026-03-09T00:44:29.371200","MEAN_MOTION":15.02523886,"ECCENTRICITY":0.00011649,"INCLINATION":43.0038,"RA_OF_ASC_NODE":59.4846,"ARG_OF_PERICENTER":252.6166,"MEAN_ANOMALY":107.4549,"EPHEMERIS_TYPE":0,"CLASSIFICATION_TYPE":"U","NORAD_CAT_ID":56005,"ELEMENT_SET_NO":999,"REV_AT_EPOCH":16281,"BSTAR":0.00015614724,"MEAN_MOTION_DOT":1.906e-5,"MEAN_MOTION_DDOT":0},{"OBJECT_NAME":"COSMOS 2251 DEB","OBJECT_ID":"1993-036SS","EPOCH":"2026-03-09T22:59:54.978144","MEAN_MOTION":15.02003149,"ECCENTRICITY":0.00206055,"INCLINATION":74.0288,"RA_OF_ASC_NODE":253.6967,"ARG_OF_PERICENTER":277.4018,"MEAN_ANOMALY":234.4946,"EPHEMERIS_TYPE":0,"CLASSIFICATION_TYPE":"U","NORAD_CAT_ID":34449,"ELEMENT_SET_NO":999,"REV_AT_EPOCH":89999,"BSTAR":0.0029470254,"MEAN_MOTION_DOT":0.00038984,"MEAN_MOTION_DDOT":0}]
